[{"OBJECT_NAME":"STARLINK-5827","OBJECT_ID":"2023-088U","EPOCH":"2026-03-09T02:16:59.918880","MEAN_MOTION":15.02533243,"ECCENTRICITY":0.00014914,"INCLINATION":43.0033,"RA_OF_ASC_NODE":110.4145,"ARG_OF_PERICENTER":275.9436,"MEAN_ANOMALY":84.1236,"EPHEMERIS_TYPE":0,"CLASSIFICATION_TYPE":"U","NORAD_CAT_ID":57066,"ELEMENT_SET_NO":999,"REV_AT_EPOCH":14930,"BSTAR":-3.0595e-7,"MEAN_MOTION_DOT":-2.08e-6,"MEAN_MOTION_DDOT":0},{"OBJECT_NAME":"COSMOS 886 DEB","OBJECT_ID":"1976-126AR","EPOCH":"2026-03-09T21:36:12.993696","MEAN_MOTION":13.31800165,"ECCENTRICITY":0.07768266,"INCLINATION":65.8223,"RA_OF_ASC_NODE":335.2921,"ARG_OF_PERICENTER":140.8231,"MEAN_ANOMALY":225.1777,"EPHEMERIS_TYPE":0,"CLASSIFICATION_TYPE":"U","NORAD_CAT_ID":9951,"ELEMENT_SET_NO":999,"REV_AT_EPOCH":4670,"BSTAR":0.00068514651,"MEAN_MOTION_DOT":1.806e-5,"MEAN_MOTION_DDOT":0}]
